{
  "type": "FeatureCollection",
  "features": [
    {
      "type": "Feature",
      "properties": {
        "norad_id": 43262,
        "name": "GAOFEN-1 04",
        "group": "resource",
        "lat": 21.52046243479728,
        "lon": 53.03557835709835,
        "alt_km": 640.1646958935798,
        "timestamp": "2025-12-24T09:46:30.653089+00:00",
        "meta_object_name": "GAOFEN-1 04",
        "meta_object_id": "2018-031D",
        "meta_epoch": "2025-12-24T04:47:50.682624",
        "meta_mean_motion": 14.76429315,
        "meta_eccentricity": 5.45e-05,
        "meta_inclination": 98.079,
        "meta_ra_of_asc_node": 56.039,
        "meta_arg_of_pericenter": 61.667,
        "meta_mean_anomaly": 298.4594,
        "meta_ephemeris_type": 0,
        "meta_classification_type": "U",
        "meta_norad_cat_id": 43262,
        "meta_element_set_no": 999,
        "meta_rev_at_epoch": 41686,
        "meta_bstar": 0.00018942,
        "meta_mean_motion_dot": 1.265e-05,
        "meta_mean_motion_ddot": 0,
        "tle_line1": "1 43262U 18031D   25358.19989216  .00001265  00000+0  18942-3 0  9998",
        "tle_line2": "2 43262  98.0790  56.0390 0000545  61.6670 298.4594 14.76429315416863"
      },
      "geometry": {
        "type": "Point",
        "coordinates": [
          53.03557835709835,
          21.52046243479728
        ]
      }
    },
    {
      "type": "Feature",
      "properties": {
        "norad_id": 43437,
        "name": "SENTINEL-3B",
        "group": "resource",
        "lat": -79.56423947305267,
        "lon": -172.07219291815684,
        "alt_km": 811.1266631303097,
        "timestamp": "2025-12-24T09:46:30.653099+00:00",
        "meta_object_name": "SENTINEL-3B",
        "meta_object_id": "2018-039A",
        "meta_epoch": "2025-12-24T03:29:30.270336",
        "meta_mean_motion": 14.2673837,
        "meta_eccentricity": 0.0001605,
        "meta_inclination": 98.6251,
        "meta_ra_of_asc_node": 63.1665,
        "meta_arg_of_pericenter": 90.5457,
        "meta_mean_anomaly": 269.5907,
        "meta_ephemeris_type": 0,
        "meta_classification_type": "U",
        "meta_norad_cat_id": 43437,
        "meta_element_set_no": 999,
        "meta_rev_at_epoch": 39916,
        "meta_bstar": 7.7374e-05,
        "meta_mean_motion_dot": 1.44e-06,
        "meta_mean_motion_ddot": 0,
        "tle_line1": "1 43437U 18039A   25358.14548924  .00000144  00000+0  77374-4 0  9992",
        "tle_line2": "2 43437  98.6251  63.1665 0001605  90.5457 269.5907 14.26738370399160"
      },
      "geometry": {
        "type": "Point",
        "coordinates": [
          -172.07219291815684,
          -79.56423947305267
        ]
      }
    },
    {
      "type": "Feature",
      "properties": {
        "norad_id": 43461,
        "name": "GAOFEN-5 01",
        "group": "resource",
        "lat": -45.20450686585358,
        "lon": 132.98468143368507,
        "alt_km": 698.2139933419085,
        "timestamp": "2025-12-24T09:46:30.653109+00:00",
        "meta_object_name": "GAOFEN-5 01",
        "meta_object_id": "2018-043A",
        "meta_epoch": "2025-12-24T03:48:41.649696",
        "meta_mean_motion": 14.6042172,
        "meta_eccentricity": 5.03e-05,
        "meta_inclination": 98.4344,
        "meta_ra_of_asc_node": 321.3264,
        "meta_arg_of_pericenter": 252.0081,
        "meta_mean_anomaly": 108.1063,
        "meta_ephemeris_type": 0,
        "meta_classification_type": "U",
        "meta_norad_cat_id": 43461,
        "meta_element_set_no": 999,
        "meta_rev_at_epoch": 40614,
        "meta_bstar": 0.00010593,
        "meta_mean_motion_dot": 4.64e-06,
        "meta_mean_motion_ddot": 0,
        "tle_line1": "1 43461U 18043A   25358.15881539  .00000464  00000+0  10593-3 0  9991",
        "tle_line2": "2 43461  98.4344 321.3264 0000503 252.0081 108.1063 14.60421720406140"
      },
      "geometry": {
        "type": "Point",
        "coordinates": [
          132.98468143368507,
          -45.20450686585358
        ]
      }
    },
    {
      "type": "Feature",
      "properties": {
        "norad_id": 43484,
        "name": "GAOFEN-6",
        "group": "resource",
        "lat": 1.3563791578366815,
        "lon": -117.53215481461525,
        "alt_km": 650.5872477749244,
        "timestamp": "2025-12-24T09:46:30.653120+00:00",
        "meta_object_name": "GAOFEN-6",
        "meta_object_id": "2018-048A",
        "meta_epoch": "2025-12-24T04:05:27.066624",
        "meta_mean_motion": 14.76586375,
        "meta_eccentricity": 0.0012613,
        "meta_inclination": 97.8016,
        "meta_ra_of_asc_node": 62.053,
        "meta_arg_of_pericenter": 29.7533,
        "meta_mean_anomaly": 330.4392,
        "meta_ephemeris_type": 0,
        "meta_classification_type": "U",
        "meta_norad_cat_id": 43484,
        "meta_element_set_no": 999,
        "meta_rev_at_epoch": 40756,
        "meta_bstar": 0.0001447,
        "meta_mean_motion_dot": 9.62e-06,
        "meta_mean_motion_ddot": 0,
        "tle_line1": "1 43484U 18048A   25358.17045216  .00000962  00000+0  14470-3 0  9998",
        "tle_line2": "2 43484  97.8016  62.0530 0012613  29.7533 330.4392 14.76586375407562"
      },
      "geometry": {
        "type": "Point",
        "coordinates": [
          -117.53215481461525,
          1.3563791578366815
        ]
      }
    },
    {
      "type": "Feature",
      "properties": {
        "norad_id": 43585,
        "name": "GAOFEN-11 01",
        "group": "resource",
        "lat": 21.901334521343557,
        "lon": -115.85960830491588,
        "alt_km": 418.13201353534805,
        "timestamp": "2025-12-24T09:46:30.653130+00:00",
        "meta_object_name": "GAOFEN-11 01",
        "meta_object_id": "2018-063A",
        "meta_epoch": "2025-12-24T04:26:46.902912",
        "meta_mean_motion": 15.49538596,
        "meta_eccentricity": 0.0003903,
        "meta_inclination": 97.1543,
        "meta_ra_of_asc_node": 61.0256,
        "meta_arg_of_pericenter": 252.6449,
        "meta_mean_anomaly": 107.4376,
        "meta_ephemeris_type": 0,
        "meta_classification_type": "U",
        "meta_norad_cat_id": 43585,
        "meta_element_set_no": 999,
        "meta_rev_at_epoch": 41319,
        "meta_bstar": 0.00035829,
        "meta_mean_motion_dot": 0.00019691,
        "meta_mean_motion_ddot": 0,
        "tle_line1": "1 43585U 18063A   25358.18526508  .00019691  00000+0  35829-3 0  9996",
        "tle_line2": "2 43585  97.1543  61.0256 0003903 252.6449 107.4376 15.49538596413194"
      },
      "geometry": {
        "type": "Point",
        "coordinates": [
          -115.85960830491588,
          21.901334521343557
        ]
      }
    },
    {
      "type": "Feature",
      "properties": {
        "norad_id": 43613,
        "name": "ICESAT-2",
        "group": "resource",
        "lat": 85.12081917166572,
        "lon": -140.33066871987637,
        "alt_km": 471.8230944469751,
        "timestamp": "2025-12-24T09:46:30.653140+00:00",
        "meta_object_name": "ICESAT-2",
        "meta_object_id": "2018-070A",
        "meta_epoch": "2025-12-23T22:24:04.787136",
        "meta_mean_motion": 15.28198972,
        "meta_eccentricity": 0.0003013,
        "meta_inclination": 92.004,
        "meta_ra_of_asc_node": 243.7581,
        "meta_arg_of_pericenter": 109.8386,
        "meta_mean_anomaly": 250.3188,
        "meta_ephemeris_type": 0,
        "meta_classification_type": "U",
        "meta_norad_cat_id": 43613,
        "meta_element_set_no": 999,
        "meta_rev_at_epoch": 40569,
        "meta_bstar": 0.00033244,
        "meta_mean_motion_dot": 9.134e-05,
        "meta_mean_motion_ddot": 0,
        "tle_line1": "1 43613U 18070A   25357.93338874  .00009134  00000+0  33244-3 0  9995",
        "tle_line2": "2 43613  92.0040 243.7581 0003013 109.8386 250.3188 15.28198972405699"
      },
      "geometry": {
        "type": "Point",
        "coordinates": [
          -140.33066871987637,
          85.12081917166572
        ]
      }
    },
    {
      "type": "Feature",
      "properties": {
        "norad_id": 43719,
        "name": "HYSIS",
        "group": "resource",
        "lat": -57.785959669533206,
        "lon": 74.2384161945896,
        "alt_km": 640.8616277518631,
        "timestamp": "2025-12-24T09:46:30.653150+00:00",
        "meta_object_name": "HYSIS",
        "meta_object_id": "2018-096A",
        "meta_epoch": "2025-12-24T03:32:38.281056",
        "meta_mean_motion": 14.7867569,
        "meta_eccentricity": 8.44e-05,
        "meta_inclination": 98.0082,
        "meta_ra_of_asc_node": 61.0692,
        "meta_arg_of_pericenter": 57.4774,
        "meta_mean_anomaly": 302.6518,
        "meta_ephemeris_type": 0,
        "meta_classification_type": "U",
        "meta_norad_cat_id": 43719,
        "meta_element_set_no": 999,
        "meta_rev_at_epoch": 38155,
        "meta_bstar": 0.0002341,
        "meta_mean_motion_dot": 1.664e-05,
        "meta_mean_motion_ddot": 0,
        "tle_line1": "1 43719U 18096A   25358.14766529  .00001664  00000+0  23410-3 0  9990",
        "tle_line2": "2 43719  98.0082  61.0692 0000844  57.4774 302.6518 14.78675690381557"
      },
      "geometry": {
        "type": "Point",
        "coordinates": [
          74.2384161945896,
          -57.785959669533206
        ]
      }
    }
  ]
}